ONEWEB-0362             
1 49288U 21090K   22115.91667824 -.00028750  00000+0 -72050-1 0  9995
2 49288  87.9196 245.7134 0002341  98.8666  95.6338 13.19746492  2857
ONEWEB-0363             
1 49289U 21090L   22115.91667824 -.00058115  00000+0 -58891-2 0  9992
2 49289  87.2116 224.9935 0000780  81.0581 130.3929 14.91352849  3568
ONEWEB-0364             
1 49290U 21090M   22115.91667824 -.00049881  00000+0 -20362-1 0  9995
2 49290  87.9006 230.0917 0001299  81.1906 216.4466 14.27806379  3474
ONEWEB-0365             
1 49291U 21090N   22115.91667824 -.00028765  00000+0 -72091-1 0  9990
2 49291  87.9200 245.6938 0001720  98.8762  66.1481 13.19744807  3283
ONEWEB-0366             
1 49292U 21090P   22115.91667824  .00000015  00000+0  00000+0 0  9996
2 49292  88.0744 230.4430 0003566  23.6401  34.5841 13.81577420  3456
ONEWEB-0367             
1 49293U 21090Q   22115.91667824 -.00058108  00000+0 -58803-2 0  9992
2 49293  87.2137 225.0420 0004614  28.8104 172.4201 14.91398085  3558
ONEWEB-0368             
1 49294U 21090R   22115.91667824 -.00049603  00000+0 -20249-1 0  9995
2 49294  87.8958 230.1178 0002534  36.0817  32.8155 14.27802497  3456
ONEWEB-0369             
1 49295U 21090S   22115.91667824 -.00028853  00000+0 -72310-1 0  9996
2 49295  87.9209 245.6503 0002129  98.7444  81.0993 13.19746506  3286
ONEWEB-0370             
1 49296U 21090T   22115.91667824 -.00054747  00000+0 -55394-2 0  9992
2 49296  87.2081 224.8962 0002778  48.8201 289.5117 14.91391657  3550
ONEWEB-0371             
1 49297U 21090U   22115.91667824 -.00028756  00000+0 -72070-1 0  9993
2 49297  87.9199 245.5914 0001739 102.6795  47.7049 13.19742935  3318
ONEWEB-0372             
1 49298U 21090V   22115.91667824 -.00055973  00000+0 -56640-2 0  9991
2 49298  87.2086 224.9055 0005143  26.6897  77.0192 14.91386586  3553
ONEWEB-0373             
1 49299U 21090W   22115.91667824 -.00052518  00000+0 -19885-1 0  9993
2 49299  87.9100 230.0053 0005117  20.8475 202.4609 14.31661091  3461
ONEWEB-0374             
1 49300U 21090X   22115.91667824  .00000015  00000+0  00000+0 0  9996
2 49300  88.0515 230.4667 0004647  29.2953 118.9175 13.82478557  3458
ONEWEB-0375             
1 49301U 21090Y   22115.91667824 -.00055850  00000+0 -60677-2 0  9995
2 49301  87.5184 227.6250 0003292  45.4866  85.7054 14.88530634  3548
ONEWEB-0376             
1 49302U 21090Z   22115.91667824 -.00028737  00000+0 -72021-1 0  9995
2 49302  87.9201 245.6695 0002080  94.1452  63.5924 13.19743306  3299
ONEWEB-0377             
1 49303U 21090AA  22115.91667824 -.00057467  00000+0 -62448-2 0  9991
2 49303  87.5168 227.7082 0001994  78.1197 117.9150 14.88533361  3559
ONEWEB-0378             
1 49304U 21090AB  22115.91667824 -.00057713  00000+0 -58441-2 0  9994
2 49304  87.2040 224.7965 0003082  22.6744 137.8789 14.91375815  3073
ONEWEB-0379             
1 49305U 21090AC  22115.91667824  .00000015  00000+0  00000+0 0  9991
2 49305  88.0778 230.4415 0003110  70.2347 355.3618 13.83232820  3464
ONEWEB-0380             
1 49306U 21090AD  22115.91667824 -.00033079  00000+0 -82930-1 0  9994
2 49306  87.9203 245.6754 0001606 101.0553  71.5466 13.19750238  3296
ONEWEB-0381             
1 49307U 21090AE  22115.91667824 -.00055755  00000+0 -56426-2 0  9992
2 49307  87.2128 225.0065 0002416  53.2502 256.7197 14.91389500  3542
ONEWEB-0382             
1 49308U 21090AF  22115.91667824 -.00057535  00000+0 -58292-2 0  9994
2 49308  87.2077 224.8699 0002213  39.6298 210.9546 14.91354967  3540
ONEWEB-0383             
1 49309U 21090AG  22115.91667824  .00000015  00000+0  00000+0 0  9995
2 49309  88.0833 230.4218 0004684  37.9350 315.0901 13.83183688  3456
ONEWEB-0384             
1 49310U 21090AH  22115.91667824 -.00057065  00000+0 -57811-2 0  9991
2 49310  87.2070 224.8706 0002891  35.4996 201.0795 14.91354755  3571
ONEWEB-0385             
1 49311U 21090AJ  22115.91667824 -.00056339  00000+0 -57048-2 0  9997
2 49311  87.2019 224.7439 0003414  22.7177 254.7854 14.91368135  3566
ONEWEB-0386             
1 49312U 21090AK  22115.91667824 -.00057719  00000+0 -58424-2 0  9990
2 49312  87.2102 224.9558 0001052  56.4918 124.1734 14.91395797  3568
ONEWEB-0387             
1 49313U 21090AL  22115.91667824 -.00053645  00000+0 -54280-2 0  9991
2 49313  87.2107 224.9527 0003045  39.0636   3.0564 14.91384230  3564
ONEWEB-0388             
1 49314U 21090AM  22115.91667824 -.00028826  00000+0 -72243-1 0  9993
2 49314  87.9188 245.6734 0001777 103.2358  83.8963 13.19744040  3282
2021-091A               
1 49315U 21091A   22115.82560611  .00011405  00000+0  52008-3 0  9993
2 49315  97.4691 304.4685 0016197 330.2670 144.2387 15.20684121 29364
2021-091B               
1 49316U 21091B   22115.82030727  .00002631  00000+0  13216-3 0  9993
2 49316  97.4639 303.8732 0014472 315.8025 159.0805 15.18080519 29334
2021-091C               
1 49317U 21091C   22115.87197625  .00003396  00000+0  16833-3 0  9997
2 49317  97.4628 303.9251 0014603 316.2056 155.5949 15.18336417 29336
2021-091D               
1 49318U 21091D   22115.85692027 -.00001896  00000+0 -90747-4 0  9994
2 49318  97.4641 303.8111 0015234 323.9137 148.6616 15.17603880 29325
2021-091E               
1 49319U 21091E   22115.85440156  .00003991  00000+0  19608-3 0  9991
2 49319  97.4640 303.9823 0015392 318.0154 154.9686 15.18533716 29334
2021-091F               
1 49320U 21091F   22115.83288759  .00006252  00000+0  30109-3 0  9992
2 49320  97.4629 304.0003 0014716 317.5071 167.7252 15.19016141 29336
2021-091G               
1 49321U 21091G   22115.84787388  .00004143  00000+0  20295-3 0  9998
2 49321  97.4642 303.9969 0014494 318.2272 156.8669 15.18628176 29332
2021-091H               
1 49322U 21091H   22115.83689399  .00005073  00000+0  24600-3 0  9998
2 49322  97.4635 304.0014 0015317 318.2233 167.0852 15.18860510 29349
2021-091J               
1 49323U 21091J   22115.82943907  .00006237  00000+0  29997-3 0  9993
2 49323  97.4634 304.0193 0015616 317.8700 169.6788 15.19050004 29349
2021-091K               
1 49324U 21091K   22115.84372487  .00008859  00000+0  41466-3 0  9992
2 49324  97.4497 303.8243 0014607 318.5908 165.9329 15.19878790 29358
2021-091L               
1 49325U 21091L   22115.82217667  .00013309  00000+0  61121-3 0  9995
2 49325  97.4753 304.4777 0014533 320.6412 163.8269 15.20427168 29356
SHIJIAN-21 (SJ-21)      
1 49330U 21094A   22115.91160588 -.00000073  00000+0  00000+0 0  9993
2 49330   8.3613  50.3279 0110931  12.8887 180.9174  1.00442180  2087
SES-17                  
1 49332U 21095A   22115.46395223 -.00000353  00000+0  00000+0 0  9993
2 49332   0.1847 270.5003 0219645 180.5269 221.8271  1.01035063  2664
SYRACUSE 4A             
1 49333U 21095B   22115.33523215 -.00000002  00000+0  00000+0 0  9995
2 49333   0.4377 242.7261 1036281 204.9419 262.6633  1.02294529  2799
QZS-1R                  
1 49336U 21096A   22115.28578806 -.00000218  00000+0  00000+0 0  9998
2 49336  34.3642 102.6533 0752118 270.1489  78.6677  1.00277692  1831
JILIN-01 GAOFEN 2F      
1 49338U 21097A   22115.89598528  .00004266  00000+0  26722-3 0  9990
2 49338  97.5459 223.4888 0009968  18.9720 120.9166 15.09857472 27251
PROGRESS-MS 18          
1 49379U 21098A   22115.51974758  .00014672  00000+0  26744-3 0  9994
2 49379  51.6436 237.4272 0006149  36.1616  61.8324 15.49681628337017
YAOGAN-32 2A            
1 49383U 21099A   22115.91476092  .00000650  00000+0  14705-3 0  9997
2 49383  98.1089 242.1935 0001114  94.5541 265.5792 14.59336960 25329
YAOGAN-32 2B            
1 49384U 21099B   22115.91462945  .00000650  00000+0  14709-3 0  9994
2 49384  98.1098 242.2203 0001279  92.2718 267.8632 14.59335702 25312
SDGSAT 1                
1 49387U 21100A   22115.91873015  .00002933  00000+0  13979-3 0  9998
2 49387  97.4690 177.3574 0011511  40.2655 132.5927 15.19851202 26093
YAOGAN-35 A             
1 49390U 21101A   22115.92736307  .00008669  00000+0  35949-3 0  9999
2 49390  34.9964  71.6110 0003247   5.9004  34.3186 15.23133994 26049
YAOGAN-35 B             
1 49391U 21101B   22115.92454619  .00012103  00000+0  50059-3 0  9990
2 49391  34.9977  71.5916 0008026 325.9630  75.4241 15.23142951 26048
YAOGAN-35 C             
1 49393U 21101D   22115.92847302  .00013172  00000+0  54420-3 0  9990
2 49393  34.9979  71.6171 0002564 307.4962  94.4653 15.23193653 26054
ASTERISC                
1 49395U 21102A   22115.83812339  .00005816  00000+0  46120-3 0  9999
2 49395  97.5427 175.6170 0019564  49.7005 310.5926 15.00757039 25160
TEIKYOSAT-4 (OORURI)    
1 49396U 21102B   22115.87802172  .00000675  00000+0  58024-4 0  9993
2 49396  97.5343 175.6021 0019464  82.8045 277.5391 15.00499965 25163
RAISE 2                 
1 49397U 21102C   22115.70309651  .00002026  00000+0  16304-3 0  9996
2 49397  97.5335 175.3885 0015858  67.1542 293.1355 15.00968763 25140
2021-102D               
1 49398U 21102D   22115.81956029  .00002722  00000+0  21225-3 0  9997
2 49398  97.5379 175.6547 0017387  55.2461 305.0398 15.01881674 25173
Z-SAT                   
1 49399U 21102E   22115.81794317  .00001812  00000+0  14054-3 0  9999
2 49399  97.5438 176.0403 0025525  53.9016 306.4567 15.02363709 25189
HIBARI                  
1 49400U 21102F   22115.85728917  .00003310  00000+0  25116-3 0  9995
2 49400  97.5365 176.0839 0022039  43.8569 316.4402 15.02699674 25195
DRUMS                   
1 49401U 21102G   22115.77852354  .00002643  00000+0  20143-3 0  9993
2 49401  97.5411 176.0823 0021388  43.4813 316.8094 15.02717054 25188
KOSEN-1                 
1 49402U 21102H   22115.64969499  .00003411  00000+0  25433-3 0  9990
2 49402  97.5340 175.9588 0022874  42.4812 317.8179 15.03335452 25178
2021-102J               
1 49403U 21102J   22115.83485878  .00003945  00000+0  29109-3 0  9992
2 49403  97.5356 176.1682 0023207  43.2243 317.0798 15.03630979 25207
